{
  "norad_id": 67694,
  "name": "STARLINK-36753",
  "history": [
    {
      "epoch": "2026-03-28T22:00:01.999584Z",
      "apogee_km": 431.176332714861,
      "perigee_km": 428.7952598480897,
      "latitude_deg": -28.555209836576946,
      "longitude_deg": 47.861677245166995,
      "height_km": 441.56774032355423,
      "semi_major_axis_km": 6808.1227962814755,
      "eccentricity": 0.00017487,
      "inclination_deg": 97.2852,
      "raan_deg": 200.2331,
      "arg_perigee_deg": 101.644,
      "mean_anomaly_deg": 229.8294,
      "mean_motion_rev_day": 15.45473958
    },
    {
      "epoch": "2026-03-29T04:00:01.999584Z",
      "apogee_km": 434.28012591604056,
      "perigee_km": 432.0528296788016,
      "latitude_deg": -76.94510097137794,
      "longitude_deg": -12.84864278046867,
      "height_km": 461.87703051363064,
      "semi_major_axis_km": 6811.303477797421,
      "eccentricity": 0.0001635,
      "inclination_deg": 97.2857,
      "raan_deg": 200.485,
      "arg_perigee_deg": 84.8806,
      "mean_anomaly_deg": 196.1052,
      "mean_motion_rev_day": 15.44391547
    },
    {
      "epoch": "2026-03-30T04:00:01.999584Z",
      "apogee_km": 446.712544800087,
      "perigee_km": 444.6667615694614,
      "latitude_deg": 68.3844477156831,
      "longitude_deg": -64.80109547704016,
      "height_km": 456.5804076025976,
      "semi_major_axis_km": 6823.826653184774,
      "eccentricity": 0.0001499,
      "inclination_deg": 97.2856,
      "raan_deg": 201.4846,
      "arg_perigee_deg": 49.8132,
      "mean_anomaly_deg": 19.6845,
      "mean_motion_rev_day": 15.40142067
    },
    {
      "epoch": "2026-03-30T06:00:02.000160Z",
      "apogee_km": 448.1264055160909,
      "perigee_km": 445.4639994638992,
      "latitude_deg": 8.645551702020327,
      "longitude_deg": 105.02565887361351,
      "height_km": 449.63562414024165,
      "semi_major_axis_km": 6824.932202489995,
      "eccentricity": 0.00019505,
      "inclination_deg": 97.2855,
      "raan_deg": 201.5708,
      "arg_perigee_deg": 62.3613,
      "mean_anomaly_deg": 108.8335,
      "mean_motion_rev_day": 15.39767858
    },
    {
      "epoch": "2026-03-30T14:00:03.000384Z",
      "apogee_km": 452.19572517649067,
      "perigee_km": 449.6534021375728,
      "latitude_deg": -36.92073824487957,
      "longitude_deg": -21.566927029349213,
      "height_km": 466.10742432532106,
      "semi_major_axis_km": 6829.061563657031,
      "eccentricity": 0.00018614,
      "inclination_deg": 97.286,
      "raan_deg": 201.9008,
      "arg_perigee_deg": 70.4004,
      "mean_anomaly_deg": 146.5803,
      "mean_motion_rev_day": 15.38371481
    },
    {
      "epoch": "2026-03-30T22:00:00.999936Z",
      "apogee_km": 456.30647444939405,
      "perigee_km": 453.60562609034514,
      "latitude_deg": -78.42385375162105,
      "longitude_deg": -174.44192727440273,
      "height_km": 484.1837916450197,
      "semi_major_axis_km": 6833.093050269869,
      "eccentricity": 0.00019763,
      "inclination_deg": 97.2858,
      "raan_deg": 202.2322,
      "arg_perigee_deg": 83.5461,
      "mean_anomaly_deg": 177.3241,
      "mean_motion_rev_day": 15.37010236
    },
    {
      "epoch": "2026-03-31T20:00:01.999008Z",
      "apogee_km": 466.42216392982573,
      "perigee_km": 464.9288440414557,
      "latitude_deg": -74.8993494456798,
      "longitude_deg": 102.03369308688205,
      "height_km": 493.54475999783347,
      "semi_major_axis_km": 6843.81250398564,
      "eccentricity": 0.0001091,
      "inclination_deg": 97.286,
      "raan_deg": 203.1338,
      "arg_perigee_deg": 67.2473,
      "mean_anomaly_deg": 216.1547,
      "mean_motion_rev_day": 15.33400525
    },
    {
      "epoch": "2026-04-01T20:00:01.999008Z",
      "apogee_km": 466.3827314830478,
      "perigee_km": 464.74708672677025,
      "latitude_deg": 39.87628467672622,
      "longitude_deg": 67.82381476761626,
      "height_km": 470.5888368032908,
      "semi_major_axis_km": 6843.701909104909,
      "eccentricity": 0.0001195,
      "inclination_deg": 97.2862,
      "raan_deg": 204.1206,
      "arg_perigee_deg": 64.1171,
      "mean_anomaly_deg": 336.0659,
      "mean_motion_rev_day": 15.33437695
    },
    {
      "epoch": "2026-04-02T20:00:01.999008Z",
      "apogee_km": 466.38094721622747,
      "perigee_km": 464.9998628458925,
      "latitude_deg": 22.754099896021057,
      "longitude_deg": -103.01954366802443,
      "height_km": 468.13810725830194,
      "semi_major_axis_km": 6843.827405031059,
      "eccentricity": 0.0001009,
      "inclination_deg": 97.2863,
      "raan_deg": 205.1081,
      "arg_perigee_deg": 112.0288,
      "mean_anomaly_deg": 45.0319,
      "mean_motion_rev_day": 15.33395517
    },
    {
      "epoch": "2026-04-02T22:00:01.999584Z",
      "apogee_km": 466.37038109744935,
      "perigee_km": 465.0157133778994,
      "latitude_deg": -75.06615294656378,
      "longitude_deg": -164.5496678224755,
      "height_km": 493.5667057064539,
      "semi_major_axis_km": 6843.830047237674,
      "eccentricity": 9.897e-05,
      "inclination_deg": 97.2863,
      "raan_deg": 205.1905,
      "arg_perigee_deg": 108.7066,
      "mean_anomaly_deg": 148.0854,
      "mean_motion_rev_day": 15.33394629
    },
    {
      "epoch": "2026-04-03T20:00:01.999008Z",
      "apogee_km": 466.46982573399146,
      "perigee_km": 464.7712051186618,
      "latitude_deg": -81.86799001002274,
      "longitude_deg": 136.78095165853762,
      "height_km": 494.6855568466342,
      "semi_major_axis_km": 6843.757515426326,
      "eccentricity": 0.0001241,
      "inclination_deg": 97.2864,
      "raan_deg": 206.0923,
      "arg_perigee_deg": 123.4042,
      "mean_anomaly_deg": 150.3202,
      "mean_motion_rev_day": 15.33419006
    },
    {
      "epoch": "2026-04-04T19:52:06.406752Z",
      "apogee_km": 466.37262335807463,
      "perigee_km": 465.06818413692145,
      "latitude_deg": 1.6475671253227892e-05,
      "longitude_deg": 75.90478834439001,
      "height_km": 468.8237801420188,
      "semi_major_axis_km": 6843.857403747498,
      "eccentricity": 9.53e-05,
      "inclination_deg": 97.2858,
      "raan_deg": 207.0737,
      "arg_perigee_deg": 89.3818,
      "mean_anomaly_deg": 270.7534,
      "mean_motion_rev_day": 15.33385435
    },
    {
      "epoch": "2026-04-05T13:05:45.586464Z",
      "apogee_km": 465.992941337041,
      "perigee_km": 465.04400006947344,
      "latitude_deg": 4.381744231206387e-06,
      "longitude_deg": 177.4913296061862,
      "height_km": 468.66073635353723,
      "semi_major_axis_km": 6843.6554707032565,
      "eccentricity": 6.933e-05,
      "inclination_deg": 97.2856,
      "raan_deg": 207.781,
      "arg_perigee_deg": 93.7858,
      "mean_anomaly_deg": 266.3464,
      "mean_motion_rev_day": 15.33453303
    },
    {
      "epoch": "2026-04-05T20:55:35.203872Z",
      "apogee_km": 465.87710504460574,
      "perigee_km": 464.95733135768023,
      "latitude_deg": -5.705200064058112e-05,
      "longitude_deg": 60.03471250728508,
      "height_km": 468.5024323136999,
      "semi_major_axis_km": 6843.554218201143,
      "eccentricity": 6.72e-05,
      "inclination_deg": 97.2853,
      "raan_deg": 208.1027,
      "arg_perigee_deg": 86.7831,
      "mean_anomaly_deg": 273.3488,
      "mean_motion_rev_day": 15.33487335
    },
    {
      "epoch": "2026-04-06T06:19:23.366496Z",
      "apogee_km": 465.8757517510021,
      "perigee_km": 465.11829833711,
      "latitude_deg": 2.1193691033433406e-05,
      "longitude_deg": -80.91628516617405,
      "height_km": 468.78534486099136,
      "semi_major_axis_km": 6843.634025044055,
      "eccentricity": 5.534e-05,
      "inclination_deg": 97.2854,
      "raan_deg": 208.4883,
      "arg_perigee_deg": 117.8661,
      "mean_anomaly_deg": 242.2638,
      "mean_motion_rev_day": 15.33460511
    },
    {
      "epoch": "2026-04-07T18:20:38.102496Z",
      "apogee_km": 465.6708438743899,
      "perigee_km": 465.34234898176146,
      "latitude_deg": -1.9360950345786374e-05,
      "longitude_deg": 98.77389587395548,
      "height_km": 468.70418724649096,
      "semi_major_axis_km": 6843.643596428075,
      "eccentricity": 2.4e-05,
      "inclination_deg": 97.2874,
      "raan_deg": 209.9692,
      "arg_perigee_deg": 238.7025,
      "mean_anomaly_deg": 121.4194,
      "mean_motion_rev_day": 15.33457294
    },
    {
      "epoch": "2026-04-08T13:08:15.042912Z",
      "apogee_km": 465.8476774282117,
      "perigee_km": 465.18151638177005,
      "latitude_deg": 3.0289880846170066e-05,
      "longitude_deg": 176.86974327659564,
      "height_km": 468.7465210387954,
      "semi_major_axis_km": 6843.651596904991,
      "eccentricity": 4.867e-05,
      "inclination_deg": 97.2853,
      "raan_deg": 210.7408,
      "arg_perigee_deg": 111.2254,
      "mean_anomaly_deg": 248.9041,
      "mean_motion_rev_day": 15.33454605
    },
    {
      "epoch": "2026-04-09T18:53:37.908384Z",
      "apogee_km": 465.74226428152633,
      "perigee_km": 465.29058315556085,
      "latitude_deg": -1.7270508047872925e-05,
      "longitude_deg": 90.52462290261121,
      "height_km": 468.7698331222173,
      "semi_major_axis_km": 6843.653423718543,
      "eccentricity": 3.3e-05,
      "inclination_deg": 97.286,
      "raan_deg": 211.963,
      "arg_perigee_deg": 231.3607,
      "mean_anomaly_deg": 128.7606,
      "mean_motion_rev_day": 15.33453991
    },
    {
      "epoch": "2026-04-10T13:41:14.474688Z",
      "apogee_km": 466.27572047838294,
      "perigee_km": 464.7167408284413,
      "latitude_deg": 3.535060597077601e-05,
      "longitude_deg": 168.62143339849862,
      "height_km": 468.788527954821,
      "semi_major_axis_km": 6843.633230653412,
      "eccentricity": 0.0001139,
      "inclination_deg": 97.2844,
      "raan_deg": 212.734,
      "arg_perigee_deg": 103.4989,
      "mean_anomaly_deg": 256.6381,
      "mean_motion_rev_day": 15.33460778
    },
    {
      "epoch": "2026-04-11T13:10:45.835104Z",
      "apogee_km": 465.879922914869,
      "perigee_km": 465.1503895950109,
      "latitude_deg": 2.5792365186947844e-05,
      "longitude_deg": 176.24298034548744,
      "height_km": 468.63421736855446,
      "semi_major_axis_km": 6843.65215625494,
      "eccentricity": 5.33e-05,
      "inclination_deg": 97.2852,
      "raan_deg": 213.701,
      "arg_perigee_deg": 91.2362,
      "mean_anomaly_deg": 268.8942,
      "mean_motion_rev_day": 15.33454417
    }
  ]
}